COSMOS 2433 (720)       
1 32275U 07052A   25106.36007219 -.00000042  00000+0  00000+0 0  9990
2 32275  65.8048 330.2632 0000910 267.1749  92.8675  2.13104159136000
COSMOS 2432 (719)       
1 32276U 07052B   25105.73170053 -.00000044  00000+0  00000+0 0  9990
2 32276  65.8204 330.4037 0009885 337.1193 206.1573  2.13103322135970
COSMOS 2434 (721)       
1 32393U 07065A   25106.76719823  .00000026  00000+0  00000+0 0  9991
2 32393  64.3150 206.3037 0002172  68.7818 135.1856  2.13101435134683
COSMOS 2436 (723)       
1 32395U 07065C   25106.40873007  .00000026  00000+0  00000+0 0  9999
2 32395  64.3236 206.3836 0016720   1.2970  61.7836  2.13100346134639
COSMOS 2456 (730)       
1 36111U 09070A   25107.25605322  .00000035  00000+0  00000+0 0  9994
2 36111  64.7670  85.5293 0006403 310.0346  64.4868  2.13103750119353
COSMOS 2457 (733)       
1 36112U 09070B   25106.82945944  .00000031  00000+0  00000+0 0  9990
2 36112  64.7518  85.3963 0002030 195.6230 342.9712  2.13101195119340
COSMOS 2460 (732)       
1 36402U 10007C   25107.34066574 -.00000036  00000+0  00000+0 0  9991
2 36402  65.6548 328.8418 0002261  47.8814 158.8583  2.13106282117651
COSMOS 2476 (744)       
1 37867U 11064A   25107.60154720  .00000042  00000+0  00000+0 0  9997
2 37867  65.0339  87.2648 0024306 242.2350 307.6980  2.13101587104698
COSMOS 2477 (745)       
1 37868U 11064B   25105.87420156  .00000028  00000+0  00000+0 0  9998
2 37868  65.0399  87.3989 0021565 243.8831 240.5463  2.13103088104654
COSMOS 2475 (743)       
1 37869U 11064C   25107.25673498  .00000039  00000+0  00000+0 0  9994
2 37869  65.0475  87.3696 0027118 256.2458 165.8252  2.13101828104697
COSMOS 2485 (747)       
1 39155U 13019A   25107.29368334  .00000040  00000+0  00000+0 0  9992
2 39155  65.1883  87.9223 0024570 238.1627 121.5860  2.13104562 93205
COSMOS 2492 (754)       
1 39620U 14012A   25104.43498259 -.00000046  00000+0  00000+0 0  9993
2 39620  65.5361 328.4725 0012606 330.2042  29.7790  2.13103336 86109
COSMOS 2500 (755)       
1 40001U 14032A   25106.01810927 -.00000041  00000+0  00000+0 0  9991
2 40001  65.4715 328.2004 0004943 189.6366 170.4052  2.13106026 84353
COSMOS 2501 (702K)      
1 40315U 14075A   25105.80545015  .00000026  00000+0  00000+0 0  9997
2 40315  63.6151 205.1713 0020612 207.8766 152.0461  2.13101468 80747
COSMOS 2514 (751)       
1 41330U 16008A   25106.25823759 -.00000040  00000+0  00000+0 0  9994
2 41330  65.2636 327.6248 0008669 204.5194 155.4894  2.13102725 71521
COSMOS 2522 (752)       
1 42939U 17055A   25106.56653688  .00000026  00000+0  00000+0 0  9992
2 42939  64.0766 206.4099 0008350 234.8917 125.0636  2.13101846 58886
COSMOS 2527 (756)       
1 43508U 18053A   25105.58786811  .00000028  00000+0  00000+0 0  9992
2 43508  65.3464  88.1945 0009303 247.3050 112.5835  2.13102301 53164
COSMOS 2529 (757)       
1 43687U 18086A   25107.56318157  .00000024  00000+0  00000+0 0  9996
2 43687  64.2925 206.9706 0009472 257.0821 102.8471  2.13102061 50212
COSMOS 2534 (758)       
1 44299U 19030A   25107.40418196  .00000025  00000+0  00000+0 0  9994
2 44299  64.3657 206.9580 0011216 280.3085  91.9430  2.13102393 45850
COSMOS 2544 (759)       
1 44850U 19088A   25107.40924759  .00000042  00000+0  00000+0 0  9996
2 44850  65.3345  87.9649 0015283 262.3637  97.4508  2.13102037 41647
COSMOS 2545 (760)       
1 45358U 20018A   25107.13668451 -.00000038  00000+0  00000+0 0  9995
2 45358  64.6010 327.3572 0007185 247.2451 112.7268  2.13102522 39589
COSMOS 2547 (705K)      
1 46805U 20075A   25106.38397902  .00000027  00000+0  00000+0 0  9999
2 46805  64.5957 206.7241 0007502 236.3622 123.5986  2.13100481 34811
COSMOS 2557 (706K)      
1 52984U 22075A   25105.14327480 -.00000048  00000+0  00000+0 0  9997
2 52984  64.5370 329.5294 0011003 285.1100  74.8215  2.13102085 21597
COSMOS 2559 (707K)      
1 54031U 22130A   25091.00919060 -.00000051  00000+0  00000+0 0  9998
2 54031  64.5157 330.1326 0005192 225.6156 134.3984  2.13101195 19268
COSMOS 2564 (761)       
1 54377U 22161A   25106.68399003  .00000026  00000+0  00000+0 0  9996
2 54377  64.7374 206.8734 0009979 216.7605 143.2042  2.13102068 18547
COSMOS 2569 (703K)      
1 57517U 23114A   25107.16812202  .00000037  00000+0  00000+0 0  9991
2 57517  65.0656  87.0128 0012819 295.0806  64.7731  2.13104001 13185
COSMOS 2584 (704K)      
1 63130U 25042A   25105.64686690  .00000026  00000+0  00000+0 0  9990
2 63130  64.8460  87.3628 0007511 237.1222 122.7916  2.13103626   934
